COMMENT,ORIGINATOR,NORAD_CAT_ID,OBJECT_NAME,OBJECT_TYPE,CLASSIFICATION_TYPE,INTLDES,EPOCH,EPOCH_MICROSECONDS,MEAN_MOTION,ECCENTRICITY,INCLINATION,RA_OF_ASC_NODE,ARG_OF_PERICENTER,MEAN_ANOMALY,EPHEMERIS_TYPE,ELEMENT_SET_NO,REV_AT_EPOCH,BSTAR,MEAN_MOTION_DOT,MEAN_MOTION_DDOT,FILE,TLE_LINE0,TLE_LINE1,TLE_LINE2,OBJECT_ID,OBJECT_NUMBER,SEMIMAJOR_AXIS,PERIOD,APOGEE,PERIGEE
GENERATED VIA SPACETRACK.ORG API,18 SPCS,41616,FLOCK 2P 5,PAYLOAD,U,16040T,6/25/2018 9:39,981856,15.24454029,0.0009607,97.417,241.1616,203.9317,156.1475,0,999,11147,5.50E-05,1.28E-05,0,2300933,0 FLOCK 2P 5,1 41616U 16040T   18176.40218729 +.00001280 +00000-0 +55012-4 0  9993,2 41616 097.4170 241.1616 0009607 203.9317 156.1475 15.24454029111475,2016-040T,41616,6870.562,94.46,499.027,485.826
GENERATED VIA SPACETRACK.ORG API,18 SPCS,41616,FLOCK 2P 5,PAYLOAD,U,16040T,6/25/2018 19:06,459776,15.24454866,0.0009648,97.417,241.5515,202.4569,157.6247,0,999,11153,5.40E-05,1.25E-05,0,2301035,0 FLOCK 2P 5,1 41616U 16040T   18176.79602384 +.00001254 +00000-0 +53977-4 0  9998,2 41616 097.4170 241.5515 0009648 202.4569 157.6247 15.24454866111534,2016-040T,41616,6870.559,94.459,499.053,485.796
GENERATED VIA SPACETRACK.ORG API,18 SPCS,41616,FLOCK 2P 5,PAYLOAD,U,16040T,6/26/2018 4:33,877216,15.24456238,0.0009689,97.4169,241.9414,201.0325,159.0515,0,999,11159,5.57E-05,1.30E-05,0,2301327,0 FLOCK 2P 5,1 41616U 16040T   18177.18985969 +.00001298 +00000-0 +55736-4 0  9998,2 41616 097.4169 241.9414 0009689 201.0325 159.0515 15.24456238111599,2016-040T,41616,6870.555,94.459,499.077,485.763
GENERATED VIA SPACETRACK.ORG API,18 SPCS,41616,FLOCK 2P 5,PAYLOAD,U,16040T,6/26/2018 20:18,153792,15.24459267,0.0009756,97.4169,242.5912,198.6169,161.4713,0,999,11169,6.34E-05,1.49E-05,0,2301414,0 FLOCK 2P 5,1 41616U 16040T   18177.84625178  .00001485  00000-0  63363-4 0  9997,2 41616  97.4169 242.5912 0009756 198.6169 161.4713 15.24459267111694,2016-040T,41616,6870.546,94.459,499.114,485.708
GENERATED VIA SPACETRACK.ORG API,18 SPCS,41616,FLOCK 2P 5,PAYLOAD,U,16040T,6/27/2018 5:45,509888,15.24460394,0.0009805,97.4169,242.9811,197.1677,162.9231,0,999,11175,6.30E-05,1.48E-05,0,2301698,0 FLOCK 2P 5,1 41616U 16040T   18178.24008692 +.00001476 +00000-0 +62994-4 0  9997,2 41616 097.4169 242.9811 0009805 197.1677 162.9231 15.24460394111750,2016-040T,41616,6870.543,94.459,499.144,485.671
GENERATED VIA SPACETRACK.ORG API,18 SPCS,41616,FLOCK 2P 5,PAYLOAD,U,16040T,6/27/2018 15:12,835744,15.24461547,0.0009847,97.4169,243.371,195.7009,164.3925,0,999,11181,6.27E-05,1.47E-05,0,2301835,0 FLOCK 2P 5,1 41616U 16040T   18178.63392171 +.00001470 +00000-0 +62749-4 0  9990,2 41616 097.4169 243.3710 0009847 195.7009 164.3925 15.24461547111816,2016-040T,41616,6870.539,94.459,499.17,485.639
GENERATED VIA SPACETRACK.ORG API,18 SPCS,41616,FLOCK 2P 5,PAYLOAD,U,16040T,6/28/2018 5:23,780896,15.24462694,0.0009914,97.4168,243.9558,193.5526,166.5447,0,999,11190,5.80E-05,1.35E-05,0,2301999,0 FLOCK 2P 5,1 41616U 16040T   18179.22467339 +.00001353 +00000-0 +57976-4 0  9991,2 41616 097.4168 243.9558 0009914 193.5526 166.5447 15.24462694111903,2016-040T,41616,6870.536,94.459,499.212,485.589
GENERATED VIA SPACETRACK.ORG API,18 SPCS,41616,FLOCK 2P 5,PAYLOAD,U,16040T,6/28/2018 22:43,111552,15.24464122,0.0009984,97.4167,244.6705,190.9313,169.1709,0,999,11201,5.34E-05,1.24E-05,0,2302005,0 FLOCK 2P 5,1 41616U 16040T   18179.94670268 +.00001242 +00000-0 +53439-4 0  9994,2 41616 097.4167 244.6705 0009984 190.9313 169.1709 15.24464122112017,2016-040T,41616,6870.532,94.459,499.256,485.537
GENERATED VIA SPACETRACK.ORG API,18 SPCS,41616,FLOCK 2P 5,PAYLOAD,U,16040T,6/29/2018 3:26,727392,15.2446466,0.0010003,97.4167,244.8655,190.2257,169.8778,0,999,11204,5.30E-05,1.23E-05,0,2302346,0 FLOCK 2P 5,1 41616U 16040T   18180.14361953 +.00001232 +00000-0 +53037-4 0  9999,2 41616 097.4167 244.8655 0010003 190.2257 169.8778 15.24464660112040,2016-040T,41616,6870.53,94.459,499.268,485.522
GENERATED VIA SPACETRACK.ORG API,18 SPCS,41616,FLOCK 2P 5,PAYLOAD,U,16040T,6/29/2018 19:12,764640,15.24466255,0.0010076,97.4166,245.5152,187.8439,172.2643,0,999,11214,5.13E-05,1.19E-05,0,2302440,0 FLOCK 2P 5,1 41616U 16040T   18180.80000885  .00001188  00000-0  51271-4 0  9994,2 41616  97.4166 245.5152 0010076 187.8439 172.2643 15.24466255112145,2016-040T,41616,6870.525,94.459,499.313,485.467
GENERATED VIA SPACETRACK.ORG API,18 SPCS,41616,FLOCK 2P 5,PAYLOAD,U,16040T,6/30/2018 4:39,951392,15.24467174,0.0010113,97.4166,245.9051,186.5009,173.6099,0,999,11220,4.99E-05,1.15E-05,0,2302722,0 FLOCK 2P 5,1 41616U 16040T   18181.19384203 +.00001154 +00000-0 +49866-4 0  9996,2 41616 097.4166 245.9051 0010113 186.5009 173.6099 15.24467174112206,2016-040T,41616,6870.522,94.459,499.336,485.439
GENERATED VIA SPACETRACK.ORG API,18 SPCS,41616,FLOCK 2P 5,PAYLOAD,U,16040T,6/30/2018 17:15,493408,15.24468455,0.001017,97.4165,246.4249,184.6383,175.4762,0,999,11228,4.82E-05,1.11E-05,0,2302794,0 FLOCK 2P 5,1 41616U 16040T   18181.71895247 +.00001113 +00000-0 +48205-4 0  9990,2 41616 097.4165 246.4249 0010170 184.6383 175.4762 15.24468455112285,2016-040T,41616,6870.519,94.459,499.371,485.396
GENERATED VIA SPACETRACK.ORG API,18 SPCS,41616,FLOCK 2P 5,PAYLOAD,U,16040T,7/1/2018 4:16,702272,15.2447183,0.0010242,97.4166,246.8796,183.2011,176.9162,0,999,11235,6.97E-05,1.64E-05,0,2302886,0 FLOCK 2P 5,1 41616U 16040T   18182.17842248  .00001641  00000-0  69681-4 0  9991,2 41616  97.4166 246.8796 0010242 183.2011 176.9162 15.24471830112359,2016-040T,41616,6870.508,94.458,499.41,485.337
GENERATED VIA SPACETRACK.ORG API,18 SPCS,41616,FLOCK 2P 5,PAYLOAD,U,16040T,7/1/2018 16:53,142336,15.24473026,0.0010297,97.4165,247.3995,181.3382,178.783,0,999,11243,6.42E-05,1.51E-05,0,2303179,0 FLOCK 2P 5,1 41616U 16040T   18182.70353174 +.00001507 +00000-0 +64220-4 0  9990,2 41616 097.4165 247.3995 0010297 181.3382 178.7830 15.24473026112435,2016-040T,41616,6870.505,94.458,499.444,485.295
GENERATED VIA SPACETRACK.ORG API,18 SPCS,41616,FLOCK 2P 5,PAYLOAD,U,16040T,7/2/2018 10:12,72960,15.24474251,0.0010372,97.4165,248.1142,178.7867,181.3397,0,999,11254,5.58E-05,1.30E-05,0,2303736,0 FLOCK 2P 5,1 41616U 16040T   18183.42555640 +.00001301 +00000-0 +55815-4 0  9994,2 41616 097.4165 248.1142 0010372 178.7867 181.3397 15.24474251112541,2016-040T,41616,6870.501,94.458,499.492,485.24
GENERATED VIA SPACETRACK.ORG API,18 SPCS,41616,FLOCK 2P 5,PAYLOAD,U,16040T,7/2/2018 19:39,94688,15.2447459,0.001041,97.4165,248.5041,177.3999,182.7295,0,999,11260,4.96E-05,1.15E-05,0,2303824,0 FLOCK 2P 5,1 41616U 16040T   18183.81938767 +.00001147 +00000-0 +49583-4 0  9995,2 41616 097.4165 248.5041 0010410 177.3999 182.7295 15.24474590112602,2016-040T,41616,6870.5,94.458,499.517,485.213
GENERATED VIA SPACETRACK.ORG API,18 SPCS,41616,FLOCK 2P 5,PAYLOAD,U,16040T,7/3/2018 9:50,568096,15.24476345,0.0010472,97.4165,249.0889,175.3472,184.7865,0,999,11269,5.00E-05,1.16E-05,0,2304056,0 FLOCK 2P 5,1 41616U 16040T   18184.41013389 +.00001157 +00000-0 +49975-4 0  9992,2 41616 097.4165 249.0889 0010472 175.3472 184.7865 15.24476345112694,2016-040T,41616,6870.495,94.458,499.555,485.165
GENERATED VIA SPACETRACK.ORG API,18 SPCS,41616,FLOCK 2P 5,PAYLOAD,U,16040T,7/3/2018 19:17,551808,15.24476925,0.0010515,97.4164,249.4788,173.9905,186.1461,0,999,11275,4.69E-05,1.08E-05,0,2304143,0 FLOCK 2P 5,1 41616U 16040T   18184.80396472  .00001081  00000-0  46876-4 0  9995,2 41616  97.4164 249.4788 0010515 173.9905 186.1461 15.24476925112757,2016-040T,41616,6870.493,94.458,499.582,485.134
GENERATED VIA SPACETRACK.ORG API,18 SPCS,41616,FLOCK 2P 5,PAYLOAD,U,16040T,7/4/2018 3:10,365664,15.24477482,0.0010559,97.4164,249.8036,172.8826,187.2563,0,999,11280,4.54E-05,1.04E-05,0,2304453,0 FLOCK 2P 5,1 41616U 16040T   18185.13215701 +.00001044 +00000-0 +45351-4 0  9993,2 41616 097.4164 249.8036 0010559 172.8826 187.2563 15.24477482112805,2016-040T,41616,6870.491,94.458,499.611,485.102
GENERATED VIA SPACETRACK.ORG API,18 SPCS,41616,FLOCK 2P 5,PAYLOAD,U,16040T,7/4/2018 22:04,292480,15.2447855,0.0010648,97.4163,250.5833,170.2016,189.9431,0,999,11292,4.09E-05,9.34E-06,0,2304631,0 FLOCK 2P 5,1 41616U 16040T   18185.91981820 +.00000934 +00000-0 +40915-4 0  9999,2 41616 097.4163 250.5833 0010648 170.2016 189.9431 15.24478550112923,2016-040T,41616,6870.488,94.458,499.669,485.037
GENERATED VIA SPACETRACK.ORG API,18 SPCS,41616,FLOCK 2P 5,PAYLOAD,U,16040T,7/5/2018 2:48,750208,15.24479002,0.0010667,97.4163,250.7782,169.5497,190.5964,0,999,11295,4.08E-05,9.32E-06,0,2304625,0 FLOCK 2P 5,1 41616U 16040T   18186.11673322  .00000932  00000-0  40816-4 0  9995,2 41616  97.4163 250.7782 0010667 169.5497 190.5964 15.24479002112958,2016-040T,41616,6870.487,94.458,499.681,485.023
GENERATED VIA SPACETRACK.ORG API,18 SPCS,41616,FLOCK 2P 5,PAYLOAD,U,16040T,7/5/2018 9:06,373472,15.24479548,0.0010692,97.4163,251.0381,168.6649,191.4832,0,999,11299,4.10E-05,9.37E-06,0,2304841,0 FLOCK 2P 5,1 41616U 16040T   18186.37928673 +.00000937 +00000-0 +41005-4 0  9991,2 41616 097.4163 251.0381 0010692 168.6649 191.4832 15.24479548112997,2016-040T,41616,6870.485,94.458,499.696,485.004
GENERATED VIA SPACETRACK.ORG API,18 SPCS,41616,FLOCK 2P 5,PAYLOAD,U,16040T,7/5/2018 20:07,399168,15.24480966,0.0010728,97.4163,251.4929,167.1135,193.0379,0,999,11306,4.36E-05,1.00E-05,0,2304874,0 FLOCK 2P 5,1 41616U 16040T   18186.83875462 +.00001001 +00000-0 +43609-4 0  9994,2 41616 097.4163 251.4929 0010728 167.1135 193.0379 15.24480966113062,2016-040T,41616,6870.481,94.458,499.717,484.975
GENERATED VIA SPACETRACK.ORG API,18 SPCS,41616,FLOCK 2P 5,PAYLOAD,U,16040T,7/6/2018 4:00,136128,15.24481585,0.0010766,97.4162,251.8179,166.0392,194.1145,0,999,11311,4.31E-05,9.88E-06,0,2304961,0 FLOCK 2P 5,1 41616U 16040T   18187.16694602  .00000988  00000-0  43079-4 0  9990,2 41616  97.4162 251.8179 0010766 166.0392 194.1145 15.24481585113114,2016-040T,41616,6870.479,94.458,499.741,484.947
